421P/McNaught,e,10.0742,55.3025,259.8375,5.073479,0.0862472,0.67441757,160.2281,02/23.0/2026,2000,g 14.0,4.0
# From MPEC 2025-W75
422P/Christensen,e,39.5799,36.0077,304.7228,6.271421,0.0627560,0.50533396,94.4617,02/23.0/2026,2000,g 11.0,4.0
# From MPEC 2025-W75
423P/Lemmon,e,8.3400,33.2990,81.1763,6.185513,0.0640679,0.12277102,102.9886,02/23.0/2026,2000,g  8.0,4.0
# From MPEC 2025-W75
424P/LaSagra,e,8.6816,51.1958,312.5698,4.421746,0.1060018,0.69003497,167.1430,02/23.0/2026,2000,g 17.0,4.0
# From MPEC 2025-W75
425P/Kowalski,e,16.4069,210.0931,201.0280,6.354226,0.0615333,0.54335826,99.4630,02/23.0/2026,2000,g 12.0,4.0
# From MPEC 2025-W75
426P/PANSTARRS,e,17.7840,280.3955,118.3876,3.186206,0.1732979,0.16083681,155.4367,02/23.0/2026,2000,g 13.5,4.0
# From MPEC 2025-X35
427P/ATLAS,e,11.8650,252.3249,99.6160,3.163551,0.1751628,0.31520183,187.9342,02/23.0/2026,2000,g 14.0,4.0
# From MPEC 2025-W75
428P/Gibbs,e,8.5024,299.3051,36.8737,3.489373,0.1512108,0.51807481,264.2919,02/23.0/2026,2000,g 15.0,4.0
# From MPEC 2025-W75
429P/LINEAR-Hill,e,7.5140,321.9969,75.7535,3.556557,0.1469466,0.49053275,222.3498,02/23.0/2026,2000,g 15.5,4.0
# From MPEC 2025-W75
430P/Scotti,e,4.4762,54.6362,94.4860,3.102535,0.1803553,0.50049945,278.2279,02/23.0/2026,2000,g 16.5,4.0
# From MPEC 2025-W75
431P/Scotti,e,22.3733,202.8278,200.0149,3.477582,0.1519806,0.47708242,223.5149,02/23.0/2026,2000,g 14.0,4.0
# From MPEC 2025-W75
432P/PANSTARRS,e,10.0668,239.1304,105.2252,3.038883,0.1860515,0.24071891,305.0490,02/23.0/2026,2000,g 17.0,4.0
# From MPEC 2025-W75
434P/Tenagra,e,6.3365,288.9090,128.4831,4.137143,0.1171260,0.27397979,185.0697,02/23.0/2026,2000,g 13.0,4.0
# From MPEC 2025-W75
435P/PANSTARRS,e,18.8745,98.5237,244.1739,3.022174,0.1875966,0.31745751,313.9236,02/23.0/2026,2000,g 17.0,4.0
# From MPEC 2025-W75
436P/Garradd,e,20.1995,87.1595,282.7664,5.937047,0.0681316,0.66870781,104.8461,02/23.0/2026,2000,g 14.5,4.0
# From MPEC 2025-W75
437P/Lemmon-PANSTARRS,e,3.6884,245.8424,207.1419,4.570635,0.1008647,0.25488676,129.3504,02/23.0/2026,2000,g 13.0,4.0
# From MPEC 2025-W75
438P/Christensen,e,8.2806,260.1097,58.9442,3.853777,0.1302789,0.41409122,280.6562,02/23.0/2026,2000,g 14.5,4.0
# From MPEC 2025-W75
439P/LINEAR,e,7.1116,56.4008,342.1415,3.492314,0.1510199,0.46883411,247.9447,02/23.0/2026,2000,g 13.5,4.0
# From MPEC 2025-W75
440P/Kobayashi,e,12.3560,328.7879,183.3197,8.582251,0.0392015,0.76104660,55.8714,02/23.0/2026,2000,g 15.5,4.0
# From MPEC 2025-W75
441P/PANSTARRS,e,2.5746,143.5871,178.8326,4.130752,0.1173979,0.19436940,19.5831,02/23.0/2026,2000,g 13.5,4.0
# From MPEC 2025-W75
442P/McNaught,e,6.0591,31.8676,310.6012,4.949452,0.0895094,0.53278446,115.1078,02/23.0/2026,2000,g 13.5,4.0
# From MPEC 2025-W75
443P/PANSTARRS-Christensen,e,19.8882,108.9322,145.0211,4.124229,0.1176765,0.28278289,145.1246,02/23.0/2026,2000,g 13.5,4.0
# From MPEC 2025-W75
444P/WISE-PANSTARRS,e,22.6728,88.1976,172.7654,3.480531,0.1517874,0.55432139,203.2472,02/23.0/2026,2000,g 17.0,4.0
# From MPEC 2025-W75
445P/Lemmon-PANSTARRS,e,1.0894,126.5998,213.0698,4.043402,0.1212226,0.41469604,156.0265,02/23.0/2026,2000,g 15.0,4.0
# From MPEC 2025-W75
446P/McNaught,e,16.6541,336.2841,344.5900,4.556363,0.1013390,0.64706423,138.5424,02/23.0/2026,2000,g 16.5,4.0
# From MPEC 2025-W75
447P/Sheppard-Tholen,e,7.4418,302.6390,97.3082,5.622052,0.0739370,0.17687752,95.3095,02/23.0/2026,2000,g 12.0,4.0
# From MPEC 2025-W75
448P/PANSTARRS,e,12.1424,161.7470,218.8058,3.637175,0.1420881,0.41783739,179.9311,02/23.0/2026,2000,g 16.0,4.0
# From MPEC 2025-W75
449P/Leonard,e,15.4675,242.5157,176.7855,3.599491,0.1443253,0.47966035,276.3941,02/23.0/2026,2000,g 16.0,4.0
# From MPEC 2026-A90
450P/LONEOS,e,11.0142,123.8035,27.8856,7.780556,0.0454138,0.30751074,342.4672,02/23.0/2026,2000,g  6.5,4.0
# From MPEC 2025-W75
451P/Christensen,e,26.4880,300.8612,186.8337,6.353013,0.0615509,0.55931100,72.8020,02/23.0/2026,2000,g 13.5,4.0
# From MPEC 2025-W75
452P/Sheppard-Jewitt,e,6.4225,123.6594,37.1388,7.315062,0.0498169,0.42883626,51.4907,02/23.0/2026,2000,g  9.0,4.0
# From MPEC 2025-W75
453P/WISE-Lemmon,e,27.0514,42.8821,70.9359,5.469344,0.0770551,0.58316805,83.7963,02/23.0/2026,2000,g 14.0,4.0
# From MPEC 2025-W75
454P/PANSTARRS,e,19.8048,54.5865,20.2361,4.212647,0.1139912,0.36119484,149.0256,02/23.0/2026,2000,g 14.0,4.0
# From MPEC 2025-W75
455P/PANSTARRS,e,14.1335,146.1733,237.5341,3.154028,0.1759567,0.30416616,192.5783,02/23.0/2026,2000,g 17.0,4.0
# From MPEC 2025-W75
456P/PANSTARRS,e,16.9651,243.1367,232.9749,3.168492,0.1747532,0.11556967,54.9202,02/23.0/2026,2000,g 13.5,4.0
# From MPEC 2025-W75
457P/Lemmon-PANSTARRS,e,5.2257,175.9619,104.3042,2.645144,0.2291026,0.11823174,126.4816,02/23.0/2026,2000,g 15.5,4.0
# From MPEC 2025-W75
458P/Jahn,e,13.6217,1.5422,104.9904,3.859766,0.1299758,0.31722101,157.3940,02/23.0/2026,2000,g 14.0,4.0
# From MPEC 2025-W75
459P/Catalina,e,7.1725,256.9840,205.2439,3.240531,0.1689584,0.57785653,185.3641,02/23.0/2026,2000,g 15.5,4.0
# From MPEC 2025-W75
460P/PANSTARRS,e,18.9001,180.5166,351.9279,3.027832,0.1870709,0.66431851,320.6047,02/23.0/2026,2000,g 21.0,4.0
# From MPEC 2025-W75
461P/WISE,e,18.3942,194.3700,174.8222,3.144885,0.1767245,0.56938588,283.2782,02/23.0/2026,2000,g 18.5,4.0
# From MPEC 2025-W75
462P/LONEOS-PANSTARRS,e,7.0641,322.6087,4.0950,4.854213,0.0921565,0.57898830,120.0617,02/23.0/2026,2000,g 17.0,4.0
# From MPEC 2025-W75
463P/NEOWISE,e,29.2942,283.2150,216.3480,2.973900,0.1921828,0.82602647,203.8846,02/23.0/2026,2000,g 18.0,4.0
# From MPEC 2025-W75
464P/PANSTARRS,e,21.6735,309.5780,267.4725,4.682658,0.0972670,0.28081958,106.1836,02/23.0/2026,2000,g 10.5,4.0
# From MPEC 2025-W75
465P/Hill,e,25.8626,217.9180,140.9552,6.001817,0.0670317,0.61289406,68.4759,02/23.0/2026,2000,g 12.5,4.0
# From MPEC 2025-W75
466P/PANSTARRS,e,16.8750,114.9818,196.5214,3.939031,0.1260724,0.47566586,133.2330,02/23.0/2026,2000,g 14.0,4.0
# From MPEC 2025-W75
467P/LINEAR-Grauer,e,2.4795,43.2617,267.0580,5.823373,0.0701362,0.05415448,83.4674,02/23.0/2026,2000,g  9.0,4.0
# From MPEC 2025-W75
468P/SidingSpring,e,50.4568,356.1327,322.5409,7.112922,0.0519556,0.44463968,42.8756,02/23.0/2026,2000,g 11.5,4.0
# From MPEC 2025-W75
469P/PANSTARRS,e,20.1704,178.9635,43.4945,4.344169,0.1088539,0.30826673,8.3395,02/23.0/2026,2000,g 13.5,4.0
# From MPEC 2025-W75
470P/PANSTARRS,e,8.8440,246.1567,151.6304,4.461122,0.1046015,0.38919248,83.6442,02/23.0/2026,2000,g 15.5,4.0
# From MPEC 2025-W75
471P/LINEAR-Lemmon,e,4.7967,283.3092,94.7032,5.685519,0.0727024,0.62752646,57.9040,02/23.0/2026,2000,g 12.0,4.0
# From MPEC 2025-W75
472P/NEAT-LINEAR,e,10.8282,205.7933,218.7842,7.757617,0.0456154,0.56354807,26.8925,02/23.0/2026,2000,g 10.5,4.0
# From MPEC 2025-W75
473P/NEAT,e,56.8783,22.1915,42.9510,7.973905,0.0437721,0.82354536,31.8578,02/23.0/2026,2000,g 13.5,4.0
# From MPEC 2025-W75
474P/Hogan,e,1.0968,26.7523,11.2697,3.131116,0.1778916,0.18781224,169.6343,02/23.0/2026,2000,g 15.5,4.0
# From MPEC 2025-W75
475P/Spacewatch-LINEAR,e,14.5244,147.3497,40.4361,7.322083,0.0497453,0.44313973,31.3963,02/23.0/2026,2000,g 11.0,4.0
# From MPEC 2025-W75
476P/PANSTARRS,e,19.0052,57.0494,46.7554,4.774874,0.0944629,0.34575719,46.7089,02/23.0/2026,2000,g 12.5,4.0
# From MPEC 2025-W75
477P/PANSTARRS,e,8.9140,59.1371,305.8475,3.001351,0.1895522,0.41760751,149.6713,02/23.0/2026,2000,g 14.5,4.0
# From MPEC 2025-W75
478P/ATLAS,e,12.5255,127.2578,13.2842,3.648852,0.1414066,0.34383159,93.5650,02/23.0/2026,2000,g 13.5,4.0
# From MPEC 2025-W75
479P/Elenin,e,15.3985,295.8280,263.4951,5.622718,0.0739239,0.77903304,48.6901,02/23.0/2026,2000,g 15.0,4.0
# From MPEC 2025-W75
480P/PANSTARRS,e,13.7147,229.9858,214.4940,4.612442,0.0994965,0.24615426,103.0756,02/23.0/2026,2000,g 12.0,4.0
# From MPEC 2025-W75
481P/Lemmon-PANSTARRS,e,6.0826,93.5511,356.8653,4.683442,0.0972425,0.34334149,93.3091,02/23.0/2026,2000,g 13.5,4.0
# From MPEC 2025-W75
482P/PANSTARRS,e,24.4899,126.0702,339.7574,3.757581,0.1353136,0.49231364,134.8690,02/23.0/2026,2000,g 13.5,4.0
# From MPEC 2025-W75
483P/PANSTARRS,e,14.1755,198.8882,49.7823,3.194312,0.1726387,0.22152021,251.6009,02/23.0/2026,2000,g 16.5,4.0
# From MPC186638
483P-A/PANSTARRS,e,14.1755,198.8883,49.7825,3.194312,0.1726387,0.22152059,251.6006,02/23.0/2026,2000,g 13.5,4.0
# From MPC185666
483P-B/PANSTARRS,e,14.1763,198.8877,49.7733,3.194227,0.1726455,0.22146412,251.6370,02/23.0/2026,2000,g 17.0,4.0
# From MPEC 2025-W75
484P/Spacewatch,e,14.4743,265.3631,240.8484,3.755856,0.1354068,0.43320086,258.9185,02/23.0/2026,2000,g 16.0,4.0
# From MPEC 2025-W75
485P/Sheppard-Tholen,e,10.0159,261.6463,196.1644,6.853725,0.0549306,0.41713242,50.1227,02/23.0/2026,2000,g 13.0,4.0
# From MPEC 2025-YF1
486P/Leonard,e,2.2097,219.0231,93.9339,3.626706,0.1427038,0.36334055,46.4082,02/23.0/2026,2000,g 14.5,4.0
# From MPEC 2025-W75
487P/SidingSpring,e,39.3663,49.2005,0.8370,5.159913,0.0840893,0.64827590,41.2440,02/23.0/2026,2000,g 13.5,4.0
# From MPEC 2025-W75
488P/NEAT-PANSTARRS,e,11.5424,323.1796,3.0509,3.766102,0.1348547,0.55139732,86.7023,02/23.0/2026,2000,g 16.5,4.0
# From MPEC 2024-Q14
489P/Denning,e,4.0260,20.5972,109.4184,4.424230,0.1059126,0.64709204,8.5470,02/23.0/2026,2000,g 15.5,4.0
# From MPEC 2025-W75
490P/ATLAS,e,12.2683,307.5809,332.6036,3.031040,0.1867741,0.64675586,95.8127,02/23.0/2026,2000,g 21.0,4.0
# From MPEC 2025-W75
491P/Spacewatch-PANSTARRS,e,9.3671,311.6836,298.8253,5.012484,0.0878263,0.25871609,47.0149,02/23.0/2026,2000,g  9.5,4.0
# From MPEC 2025-W75
492P/LINEAR,e,11.4008,11.3053,40.9794,5.757456,0.0713441,0.69044442,41.5683,02/23.0/2026,2000,g 15.0,4.0
# From MPEC 2026-A90
493P/LONEOS,e,24.1072,1.0685,83.2484,7.181002,0.0512185,0.46763148,2.0414,02/23.0/2026,2000,g 12.0,2.0
# From MPEC 2025-W75
494P/PANSTARRS,e,7.7896,245.0441,48.8902,3.794396,0.1333491,0.35658400,84.4260,02/23.0/2026,2000,g 16.0,4.0
# From MPEC 2026-A24
495P/Christensen,e,26.3570,291.6125,141.3356,4.766897,0.0947001,0.27421350,11.7097,02/23.0/2026,2000,g 11.5,4.0
# From MPEC 2025-W75
